CCSDS_OMM_VERS = 2.0
CREATION_DATE  = 
ORIGINATOR     = 

OBJECT_NAME    = 2026-027H
OBJECT_ID      = 2026-027H
CENTER_NAME    = EARTH
REF_FRAME      = TEME
TIME_SYSTEM    = UTC
MEAN_ELEMENT_THEORY = SGP/SGP4

EPOCH          = 2026-02-20T06:38:19.664736
MEAN_MOTION    = 15.61199699
ECCENTRICITY   = .02623742
INCLINATION    = 97.5141
RA_OF_ASC_NODE = 181.0482
ARG_OF_PERICENTER = 309.7599
MEAN_ANOMALY   = 48.0805

EPHEMERIS_TYPE = 0
CLASSIFICATION_TYPE = U
NORAD_CAT_ID   = 67753
ELEMENT_SET_NO = 999
REV_AT_EPOCH   = 125
BSTAR          = .56532969E-3
MEAN_MOTION_DOT = .305E-2
MEAN_MOTION_DDOT = .2325928E-5

CCSDS_OMM_VERS = 2.0
CREATION_DATE  = 
ORIGINATOR     = 

OBJECT_NAME    = 2026-027J
OBJECT_ID      = 2026-027J
CENTER_NAME    = EARTH
REF_FRAME      = TEME
TIME_SYSTEM    = UTC
MEAN_ELEMENT_THEORY = SGP/SGP4

EPOCH          = 2026-02-20T06:14:02.446656
MEAN_MOTION    = 15.67824881
ECCENTRICITY   = .02380363
INCLINATION    = 97.5105
RA_OF_ASC_NODE = 181.0712
ARG_OF_PERICENTER = 309.1115
MEAN_ANOMALY   = 48.9192

EPHEMERIS_TYPE = 0
CLASSIFICATION_TYPE = U
NORAD_CAT_ID   = 67754
ELEMENT_SET_NO = 999
REV_AT_EPOCH   = 119
BSTAR          = .11603965E-2
MEAN_MOTION_DOT = .70167E-2
MEAN_MOTION_DDOT = .2365132E-5

CCSDS_OMM_VERS = 2.0
CREATION_DATE  = 
ORIGINATOR     = 

OBJECT_NAME    = 2026-028A
OBJECT_ID      = 2026-028A
CENTER_NAME    = EARTH
REF_FRAME      = TEME
TIME_SYSTEM    = UTC
MEAN_ELEMENT_THEORY = SGP/SGP4

EPOCH          = 2026-02-20T06:22:02.812512
MEAN_MOTION    = 0.99528940
ECCENTRICITY   = .00420421
INCLINATION    = 0.5114
RA_OF_ASC_NODE = 288.4219
ARG_OF_PERICENTER = 230.4455
MEAN_ANOMALY   = 201.2875

EPHEMERIS_TYPE = 0
CLASSIFICATION_TYPE = U
NORAD_CAT_ID   = 67756
ELEMENT_SET_NO = 999
REV_AT_EPOCH   = 8
BSTAR          = 0
MEAN_MOTION_DOT = -.258E-5
MEAN_MOTION_DDOT = 0

CCSDS_OMM_VERS = 2.0
CREATION_DATE  = 
ORIGINATOR     = 

OBJECT_NAME    = KUIPER-00159
OBJECT_ID      = 2026-030A
CENTER_NAME    = EARTH
REF_FRAME      = TEME
TIME_SYSTEM    = UTC
MEAN_ELEMENT_THEORY = SGP/SGP4

EPOCH          = 2026-02-19T16:00:01.999584
MEAN_MOTION    = 15.34872377
ECCENTRICITY   = .0003786
INCLINATION    = 51.8846
RA_OF_ASC_NODE = 306.0237
ARG_OF_PERICENTER = 3.6956
MEAN_ANOMALY   = 355.5655

EPHEMERIS_TYPE = 0
CLASSIFICATION_TYPE = U
NORAD_CAT_ID   = 67764
ELEMENT_SET_NO = 999
REV_AT_EPOCH   = 169
BSTAR          = .16472E-2
MEAN_MOTION_DOT = .56604E-3
MEAN_MOTION_DDOT = 0

CCSDS_OMM_VERS = 2.0
CREATION_DATE  = 
ORIGINATOR     = 

OBJECT_NAME    = KUIPER-00160
OBJECT_ID      = 2026-030B
CENTER_NAME    = EARTH
REF_FRAME      = TEME
TIME_SYSTEM    = UTC
MEAN_ELEMENT_THEORY = SGP/SGP4

EPOCH          = 2026-02-19T16:00:01.999584
MEAN_MOTION    = 15.34806019
ECCENTRICITY   = .0004152
INCLINATION    = 51.8812
RA_OF_ASC_NODE = 306.0258
ARG_OF_PERICENTER = 14.0226
MEAN_ANOMALY   = 342.8802

EPHEMERIS_TYPE = 0
CLASSIFICATION_TYPE = U
NORAD_CAT_ID   = 67765
ELEMENT_SET_NO = 999
REV_AT_EPOCH   = 130
BSTAR          = .16727E-2
MEAN_MOTION_DOT = .57374E-3
MEAN_MOTION_DDOT = 0

CCSDS_OMM_VERS = 2.0
CREATION_DATE  = 
ORIGINATOR     = 

OBJECT_NAME    = KUIPER-00177
OBJECT_ID      = 2026-030C
CENTER_NAME    = EARTH
REF_FRAME      = TEME
TIME_SYSTEM    = UTC
MEAN_ELEMENT_THEORY = SGP/SGP4

EPOCH          = 2026-02-19T16:00:01.999584
MEAN_MOTION    = 15.35777876
ECCENTRICITY   = .0001165
INCLINATION    = 51.8834
RA_OF_ASC_NODE = 305.9780
ARG_OF_PERICENTER = 116.3530
MEAN_ANOMALY   = 264.6679

EPHEMERIS_TYPE = 0
CLASSIFICATION_TYPE = U
NORAD_CAT_ID   = 67766
ELEMENT_SET_NO = 999
REV_AT_EPOCH   = 222
BSTAR          = .16358E-2
MEAN_MOTION_DOT = .5787E-3
MEAN_MOTION_DDOT = 0

CCSDS_OMM_VERS = 2.0
CREATION_DATE  = 
ORIGINATOR     = 

OBJECT_NAME    = KUIPER-00178
OBJECT_ID      = 2026-030D
CENTER_NAME    = EARTH
REF_FRAME      = TEME
TIME_SYSTEM    = UTC
MEAN_ELEMENT_THEORY = SGP/SGP4

EPOCH          = 2026-02-19T16:00:01.999584
MEAN_MOTION    = 15.34665651
ECCENTRICITY   = .0005299
INCLINATION    = 51.8835
RA_OF_ASC_NODE = 306.0349
ARG_OF_PERICENTER = 0.1895
MEAN_ANOMALY   = 353.2160

EPHEMERIS_TYPE = 0
CLASSIFICATION_TYPE = U
NORAD_CAT_ID   = 67767
ELEMENT_SET_NO = 999
REV_AT_EPOCH   = 159
BSTAR          = .17044E-2
MEAN_MOTION_DOT = .58222E-3
MEAN_MOTION_DDOT = 0

CCSDS_OMM_VERS = 2.0
CREATION_DATE  = 
ORIGINATOR     = 

OBJECT_NAME    = KUIPER-00180
OBJECT_ID      = 2026-030E
CENTER_NAME    = EARTH
REF_FRAME      = TEME
TIME_SYSTEM    = UTC
MEAN_ELEMENT_THEORY = SGP/SGP4

EPOCH          = 2026-02-19T16:00:01.999584
MEAN_MOTION    = 15.32770775
ECCENTRICITY   = .0014711
INCLINATION    = 51.8819
RA_OF_ASC_NODE = 306.1254
ARG_OF_PERICENTER = 13.8590
MEAN_ANOMALY   = 293.2587

EPHEMERIS_TYPE = 0
CLASSIFICATION_TYPE = U
NORAD_CAT_ID   = 67768
ELEMENT_SET_NO = 999
REV_AT_EPOCH   = 130
BSTAR          = .16373E-2
MEAN_MOTION_DOT = .52755E-3
MEAN_MOTION_DDOT = 0

CCSDS_OMM_VERS = 2.0
CREATION_DATE  = 
ORIGINATOR     = 

OBJECT_NAME    = KUIPER-00197
OBJECT_ID      = 2026-030F
CENTER_NAME    = EARTH
REF_FRAME      = TEME
TIME_SYSTEM    = UTC
MEAN_ELEMENT_THEORY = SGP/SGP4

EPOCH          = 2026-02-19T16:00:01.999584
MEAN_MOTION    = 15.35528954
ECCENTRICITY   = .0001687
INCLINATION    = 51.8834
RA_OF_ASC_NODE = 305.9889
ARG_OF_PERICENTER = 71.6299
MEAN_ANOMALY   = 304.0488

EPHEMERIS_TYPE = 0
CLASSIFICATION_TYPE = U
NORAD_CAT_ID   = 67769
ELEMENT_SET_NO = 999
REV_AT_EPOCH   = 130
BSTAR          = .16327E-2
MEAN_MOTION_DOT = .57294E-3
MEAN_MOTION_DDOT = 0

CCSDS_OMM_VERS = 2.0
CREATION_DATE  = 
ORIGINATOR     = 

OBJECT_NAME    = KUIPER-00198
OBJECT_ID      = 2026-030G
CENTER_NAME    = EARTH
REF_FRAME      = TEME
TIME_SYSTEM    = UTC
MEAN_ELEMENT_THEORY = SGP/SGP4

EPOCH          = 2026-02-19T16:00:01.999584
MEAN_MOTION    = 15.35176279
ECCENTRICITY   = .0002488
INCLINATION    = 51.8812
RA_OF_ASC_NODE = 306.0070
ARG_OF_PERICENTER = 18.9570
MEAN_ANOMALY   = 347.3381

EPHEMERIS_TYPE = 0
CLASSIFICATION_TYPE = U
NORAD_CAT_ID   = 67770
ELEMENT_SET_NO = 999
REV_AT_EPOCH   = 130
BSTAR          = .16511E-2
MEAN_MOTION_DOT = .57297E-3
MEAN_MOTION_DDOT = 0

CCSDS_OMM_VERS = 2.0
CREATION_DATE  = 
ORIGINATOR     = 

OBJECT_NAME    = KUIPER-00199
OBJECT_ID      = 2026-030H
CENTER_NAME    = EARTH
REF_FRAME      = TEME
TIME_SYSTEM    = UTC
MEAN_ELEMENT_THEORY = SGP/SGP4

EPOCH          = 2026-02-19T16:00:01.999584
MEAN_MOTION    = 15.33584476
ECCENTRICITY   = .0010064
INCLINATION    = 51.8815
RA_OF_ASC_NODE = 306.0866
ARG_OF_PERICENTER = 8.0028
MEAN_ANOMALY   = 318.5284

EPHEMERIS_TYPE = 0
CLASSIFICATION_TYPE = U
NORAD_CAT_ID   = 67771
ELEMENT_SET_NO = 999
REV_AT_EPOCH   = 223
BSTAR          = .16436E-2
MEAN_MOTION_DOT = .5426E-3
MEAN_MOTION_DDOT = 0

CCSDS_OMM_VERS = 2.0
CREATION_DATE  = 
ORIGINATOR     = 

OBJECT_NAME    = KUIPER-00200
OBJECT_ID      = 2026-030J
CENTER_NAME    = EARTH
REF_FRAME      = TEME
TIME_SYSTEM    = UTC
MEAN_ELEMENT_THEORY = SGP/SGP4

EPOCH          = 2026-02-19T16:00:01.999584
MEAN_MOTION    = 15.36131017
ECCENTRICITY   = .0002775
INCLINATION    = 51.8812
RA_OF_ASC_NODE = 305.9577
ARG_OF_PERICENTER = 140.3416
MEAN_ANOMALY   = 250.3528

EPHEMERIS_TYPE = 0
CLASSIFICATION_TYPE = U
NORAD_CAT_ID   = 67772
ELEMENT_SET_NO = 999
REV_AT_EPOCH   = 212
BSTAR          = .15818E-2
MEAN_MOTION_DOT = .56584E-3
MEAN_MOTION_DDOT = 0

