2026-027H               
1 67753U 26027H   26051.27661649  .00305000  23259-5  56533-3 0  9999
2 67753  97.5141 181.0482 0262374 309.7599  48.0805 15.61199699  1256
2026-027J               
1 67754U 26027J   26051.25975054  .00701670  23651-5  11604-2 0  9994
2 67754  97.5105 181.0712 0238036 309.1115  48.9192 15.67824881  1194
2026-028A               
1 67756U 26028A   26051.26531033 -.00000258  00000+0  00000+0 0  9990
2 67756   0.5114 288.4219 0042042 230.4455 201.2875  0.99528940    82
KUIPER-00159            
1 67764U 26030A   26050.66668981  .00056604  00000+0  16472-2 0  9996
2 67764  51.8846 306.0237 0003786   3.6956 355.5655 15.34872377  1695
KUIPER-00160            
1 67765U 26030B   26050.66668981  .00057374  00000+0  16727-2 0  9995
2 67765  51.8812 306.0258 0004152  14.0226 342.8802 15.34806019  1307
KUIPER-00177            
1 67766U 26030C   26050.66668981  .00057870  00000+0  16358-2 0  9997
2 67766  51.8834 305.9780 0001165 116.3530 264.6679 15.35777876  2229
KUIPER-00178            
1 67767U 26030D   26050.66668981  .00058222  00000+0  17044-2 0  9993
2 67767  51.8835 306.0349 0005299   0.1895 353.2160 15.34665651  1595
KUIPER-00180            
1 67768U 26030E   26050.66668981  .00052755  00000+0  16373-2 0  9993
2 67768  51.8819 306.1254 0014711  13.8590 293.2587 15.32770775  1303
KUIPER-00197            
1 67769U 26030F   26050.66668981  .00057294  00000+0  16327-2 0  9996
2 67769  51.8834 305.9889 0001687  71.6299 304.0488 15.35528954  1302
KUIPER-00198            
1 67770U 26030G   26050.66668981  .00057297  00000+0  16511-2 0  9996
2 67770  51.8812 306.0070 0002488  18.9570 347.3381 15.35176279  1301
KUIPER-00199            
1 67771U 26030H   26050.66668981  .00054260  00000+0  16436-2 0  9990
2 67771  51.8815 306.0866 0010064   8.0028 318.5284 15.33584476  2230
KUIPER-00200            
1 67772U 26030J   26050.66668981  .00056584  00000+0  15818-2 0  9995
2 67772  51.8812 305.9577 0002775 140.3416 250.3528 15.36131017  2120
